{"generatedAt":"2026-05-05T08:19:47.084492Z","satellites":[{"name":"STARLINK-37507","tle1":"1 68916U 26097X   26124.75002315 -.02066029  12708-2 -40737-2 0  9992","tle2":"2 68916  97.2866 319.6815 0001367  93.5494 152.8379 16.00206930  1928"}]}