{
  "norad_id": 68916,
  "name": "STARLINK-37507",
  "history": [
    {
      "epoch": "2026-05-04T18:00:02.000160Z",
      "apogee_km": 274.75450020642074,
      "perigee_km": 272.93584827998166,
      "latitude_deg": -65.54794387868705,
      "longitude_deg": -9.198558560567202,
      "height_km": 299.6257944183817,
      "semi_major_axis_km": 6651.9821742432005,
      "eccentricity": 0.0001367,
      "inclination_deg": 97.2866,
      "raan_deg": 319.6815,
      "arg_perigee_deg": 93.5494,
      "mean_anomaly_deg": 152.8379,
      "mean_motion_rev_day": 16.0020693
    }
  ]
}